[{"OBJECT_NAME":"HAWK-A","OBJECT_ID":"2018-099H","EPOCH":"2026-03-09T16:13:51.062880","MEAN_MOTION":15.23231043,"ECCENTRICITY":0.00342596,"INCLINATION":97.4051,"RA_OF_ASC_NODE":122.2425,"ARG_OF_PERICENTER":275.5523,"MEAN_ANOMALY":84.1807,"EPHEMERIS_TYPE":0,"CLASSIFICATION_TYPE":"U","NORAD_CAT_ID":43765,"ELEMENT_SET_NO":999,"REV_AT_EPOCH":39794,"BSTAR":0.00036104215,"MEAN_MOTION_DOT":8.617e-5,"MEAN_MOTION_DDOT":0},{"OBJECT_NAME":"STARLINK-32456","OBJECT_ID":"2024-216K","EPOCH":"2026-03-09T21:24:16.987392","MEAN_MOTION":15.27578482,"ECCENTRICITY":0.00014749,"INCLINATION":43.0023,"RA_OF_ASC_NODE":255.4346,"ARG_OF_PERICENTER":293.7724,"MEAN_ANOMALY":66.2973,"EPHEMERIS_TYPE":0,"CLASSIFICATION_TYPE":"U","NORAD_CAT_ID":62041,"ELEMENT_SET_NO":999,"REV_AT_EPOCH":7390,"BSTAR":0.00093050785,"MEAN_MOTION_DOT":0.00025431,"MEAN_MOTION_DDOT":0}]
